{"type": "FeatureCollection", "features": [ {"type": "Feature", "properties": {"norad_id": 66633, "name": "STARLINK-35948", "group": "last-30-days", "lat": -35.40838492885868, "lon": 0.9640225192184533, "alt_km": 451.7290796406651, "timestamp": "2025-12-20T20:38:43.171284+00:00", "meta": {"OBJECT_NAME": "STARLINK-35948", "OBJECT_ID": "2025-271S", "EPOCH": "2025-12-19T17:10:55.246080", "MEAN_MOTION": 15.39629537, "ECCENTRICITY": 0.00010441, "INCLINATION": 53.1596, "RA_OF_ASC_NODE": 154.1516, "ARG_OF_PERICENTER": 81.5844, "MEAN_ANOMALY": 278.5279, "EPHEMERIS_TYPE": 0, "CLASSIFICATION_TYPE": "U", "NORAD_CAT_ID": 66633, "ELEMENT_SET_NO": 999, "REV_AT_EPOCH": 528, "BSTAR": 0.0006790438, "MEAN_MOTION_DOT": 0.00026866, "MEAN_MOTION_DDOT": 0}, "tle": {"line1": "1 66633U 25271S   25353.71591720  .00026866  00000+0  67904-3 0  9997", "line2": "2 66633  53.1596 154.1516 0001044  81.5844 278.5279 15.39629537  5282"}}, "geometry": {"type": "Point", "coordinates": [0.9640225192184533, -35.40838492885868]}}, {"type": "Feature", "properties": {"norad_id": 66634, "name": "STARLINK-35967", "group": "last-30-days", "lat": -49.53047999302383, "lon": 30.199176812092055, "alt_km": 452.5573450877291, "timestamp": "2025-12-20T20:38:43.171294+00:00", "meta": {"OBJECT_NAME": "STARLINK-35967", "OBJECT_ID": "2025-271T", "EPOCH": "2025-12-20T00:00:02.000160", "MEAN_MOTION": 15.39616609, "ECCENTRICITY": 9.881e-05, "INCLINATION": 53.1601, "RA_OF_ASC_NODE": 152.7619, "ARG_OF_PERICENTER": 59.4964, "MEAN_ANOMALY": 101.9399, "EPHEMERIS_TYPE": 0, "CLASSIFICATION_TYPE": "U", "NORAD_CAT_ID": 66634, "ELEMENT_SET_NO": 999, "REV_AT_EPOCH": 534, "BSTAR": 0.00039440356, "MEAN_MOTION_DOT": 0.00015406, "MEAN_MOTION_DDOT": 0}, "tle": {"line1": "1 66634U 25271T   25354.00002315  .00015406  00000+0  39440-3 0  9990", "line2": "2 66634  53.1601 152.7619 0000988  59.4964 101.9399 15.39616609  5346"}}, "geometry": {"type": "Point", "coordinates": [30.199176812092055, -49.53047999302383]}}, {"type": "Feature", "properties": {"norad_id": 66635, "name": "STARLINK-35955", "group": "last-30-days", "lat": -41.951050885545115, "lon": 106.23849851106897, "alt_km": 452.39685703768555, "timestamp": "2025-12-20T20:38:43.171304+00:00", "meta": {"OBJECT_NAME": "STARLINK-35955", "OBJECT_ID": "2025-271U", "EPOCH": "2025-12-20T14:00:03.000384", "MEAN_MOTION": 15.39629055, "ECCENTRICITY": 0.00012215, "INCLINATION": 53.1598, "RA_OF_ASC_NODE": 149.9117, "ARG_OF_PERICENTER": 91.4038, "MEAN_ANOMALY": 116.6227, "EPHEMERIS_TYPE": 0, "CLASSIFICATION_TYPE": "U", "NORAD_CAT_ID": 66635, "ELEMENT_SET_NO": 999, "REV_AT_EPOCH": 550, "BSTAR": -0.00020804966, "MEAN_MOTION_DOT": -8.714e-05, "MEAN_MOTION_DDOT": 0}, "tle": {"line1": "1 66635U 25271U   25354.58336806 -.00008714  00000+0 -20805-3 0  9990", "line2": "2 66635  53.1598 149.9117 0001221  91.4038 116.6227 15.39629055  5502"}}, "geometry": {"type": "Point", "coordinates": [106.23849851106897, -41.951050885545115]}}, {"type": "Feature", "properties": {"norad_id": 66636, "name": "STARLINK-35968", "group": "last-30-days", "lat": -52.47018212800003, "lon": 71.2379331612544, "alt_km": 452.46020343648706, "timestamp": "2025-12-20T20:38:43.171316+00:00", "meta": {"OBJECT_NAME": "STARLINK-35968", "OBJECT_ID": "2025-271V", "EPOCH": "2025-12-20T14:00:03.000384", "MEAN_MOTION": 15.39627174, "ECCENTRICITY": 6.518e-05, "INCLINATION": 53.1602, "RA_OF_ASC_NODE": 149.9621, "ARG_OF_PERICENTER": 81.1516, "MEAN_ANOMALY": 101.1201, "EPHEMERIS_TYPE": 0, "CLASSIFICATION_TYPE": "U", "NORAD_CAT_ID": 66636, "ELEMENT_SET_NO": 999, "REV_AT_EPOCH": 550, "BSTAR": -0.00017176165, "MEAN_MOTION_DOT": -7.264e-05, "MEAN_MOTION_DDOT": 0}, "tle": {"line1": "1 66636U 25271V   25354.58336806 -.00007264  00000+0 -17176-3 0  9997", "line2": "2 66636  53.1602 149.9621 0000651  81.1516 101.1201 15.39627174  5503"}}, "geometry": {"type": "Point", "coordinates": [71.2379331612544, -52.47018212800003]}}, {"type": "Feature", "properties": {"norad_id": 66637, "name": "STARLINK-35953", "group": "last-30-days", "lat": -24.30099717556184, "lon": 128.7669750342325, "alt_km": 450.9654948191628, "timestamp": "2025-12-20T20:38:43.171327+00:00", "meta": {"OBJECT_NAME": "STARLINK-35953", "OBJECT_ID": "2025-271W", "EPOCH": "2025-12-20T14:00:03.000384", "MEAN_MOTION": 15.396293, "ECCENTRICITY": 0.00011296, "INCLINATION": 53.1593, "RA_OF_ASC_NODE": 149.8595, "ARG_OF_PERICENTER": 82.2556, "MEAN_ANOMALY": 151.5206, "EPHEMERIS_TYPE": 0, "CLASSIFICATION_TYPE": "U", "NORAD_CAT_ID": 66637, "ELEMENT_SET_NO": 999, "REV_AT_EPOCH": 550, "BSTAR": -0.0001817507, "MEAN_MOTION_DOT": -7.664e-05, "MEAN_MOTION_DDOT": 0}, "tle": {"line1": "1 66637U 25271W   25354.58336806 -.00007664  00000+0 -18175-3 0  9992", "line2": "2 66637  53.1593 149.8595 0001129  82.2556 151.5206 15.39629300  5506"}}, "geometry": {"type": "Point", "coordinates": [128.7669750342325, -24.30099717556184]}}, {"type": "Feature", "properties": {"norad_id": 66638, "name": "STARLINK-35972", "group": "last-30-days", "lat": 16.238370648626912, "lon": 161.06521497541223, "alt_km": 445.8387268450415, "timestamp": "2025-12-20T20:38:43.171338+00:00", "meta": {"OBJECT_NAME": "STARLINK-35972", "OBJECT_ID": "2025-271X", "EPOCH": "2025-12-20T14:00:03.000384", "MEAN_MOTION": 15.39602548, "ECCENTRICITY": 0.00013584, "INCLINATION": 53.1593, "RA_OF_ASC_NODE": 149.7572, "ARG_OF_PERICENTER": 109.2177, "MEAN_ANOMALY": 175.9991, "EPHEMERIS_TYPE": 0, "CLASSIFICATION_TYPE": "U", "NORAD_CAT_ID": 66638, "ELEMENT_SET_NO": 999, "REV_AT_EPOCH": 550, "BSTAR": -3.8995759e-05, "MEAN_MOTION_DOT": -1.958e-05, "MEAN_MOTION_DDOT": 0}, "tle": {"line1": "1 66638U 25271X   25354.58336806 -.00001958  00000+0 -38996-4 0  9997", "line2": "2 66638  53.1593 149.7572 0001358 109.2177 175.9991 15.39602548  5500"}}, "geometry": {"type": "Point", "coordinates": [161.06521497541223, 16.238370648626912]}}, {"type": "Feature", "properties": {"norad_id": 66639, "name": "STARLINK-35908", "group": "last-30-days", "lat": 35.362740687182644, "lon": -179.4540570145791, "alt_km": 441.79763439740054, "timestamp": "2025-12-20T20:38:43.171348+00:00", "meta": {"OBJECT_NAME": "STARLINK-35908", "OBJECT_ID": "2025-271Y", "EPOCH": "2025-12-20T14:00:03.000384", "MEAN_MOTION": 15.39606925, "ECCENTRICITY": 0.00016758, "INCLINATION": 53.1596, "RA_OF_ASC_NODE": 149.7054, "ARG_OF_PERICENTER": 76.5109, "MEAN_ANOMALY": 234.5457, "EPHEMERIS_TYPE": 0, "CLASSIFICATION_TYPE": "U", "NORAD_CAT_ID": 66639, "ELEMENT_SET_NO": 999, "REV_AT_EPOCH": 550, "BSTAR": -0.00017111465, "MEAN_MOTION_DOT": -7.235e-05, "MEAN_MOTION_DDOT": 0}, "tle": {"line1": "1 66639U 25271Y   25354.58336806 -.00007235  00000+0 -17111-3 0  9997", "line2": "2 66639  53.1596 149.7054 0001675  76.5109 234.5457 15.39606925  5504"}}, "geometry": {"type": "Point", "coordinates": [-179.4540570145791, 35.362740687182644]}}, {"type": "Feature", "properties": {"norad_id": 66640, "name": "STARLINK-35921", "group": "last-30-days", "lat": -4.165714986086742, "lon": 145.37255665548474, "alt_km": 448.88013424916335, "timestamp": "2025-12-20T20:38:43.171358+00:00", "meta": {"OBJECT_NAME": "STARLINK-35921", "OBJECT_ID": "2025-271Z", "EPOCH": "2025-12-20T14:00:03.000384", "MEAN_MOTION": 15.39629672, "ECCENTRICITY": 9.109e-05, "INCLINATION": 53.1589, "RA_OF_ASC_NODE": 149.8078, "ARG_OF_PERICENTER": 106.2893, "MEAN_ANOMALY": 153.2399, "EPHEMERIS_TYPE": 0, "CLASSIFICATION_TYPE": "U", "NORAD_CAT_ID": 66640, "ELEMENT_SET_NO": 999, "REV_AT_EPOCH": 550, "BSTAR": -0.00018209944, "MEAN_MOTION_DOT": -7.678e-05, "MEAN_MOTION_DDOT": 0}, "tle": {"line1": "1 66640U 25271Z   25354.58336806 -.00007678  00000+0 -18210-3 0  9991", "line2": "2 66640  53.1589 149.8078 0000910 106.2893 153.2399 15.39629672  5503"}}, "geometry": {"type": "Point", "coordinates": [145.37255665548474, -4.165714986086742]}}, {"type": "Feature", "properties": {"norad_id": 66641, "name": "STARLINK-35923", "group": "last-30-days", "lat": 52.866531530336346, "lon": -129.73086049153025, "alt_km": 421.5377775838815, "timestamp": "2025-12-20T20:38:43.171381+00:00", "meta": {"OBJECT_NAME": "STARLINK-35923", "OBJECT_ID": "2025-271AA", "EPOCH": "2025-12-20T09:25:21.254304", "MEAN_MOTION": 15.46607991, "ECCENTRICITY": 0.00051785, "INCLINATION": 53.159, "RA_OF_ASC_NODE": 150.5492, "ARG_OF_PERICENTER": 213.3827, "MEAN_ANOMALY": 146.6855, "EPHEMERIS_TYPE": 0, "CLASSIFICATION_TYPE": "U", "NORAD_CAT_ID": 66641, "ELEMENT_SET_NO": 999, "REV_AT_EPOCH": 539, "BSTAR": 0.0019102336, "MEAN_MOTION_DOT": 0.00097517, "MEAN_MOTION_DDOT": 0}, "tle": {"line1": "1 66641U 25271AA  25354.39260711  .00097517  00000+0  19102-2 0  9991", "line2": "2 66641  53.1590 150.5492 0005178 213.3827 146.6855 15.46607991  5391"}}, "geometry": {"type": "Point", "coordinates": [-129.73086049153025, 52.866531530336346]}}, {"type": "Feature", "properties": {"norad_id": 66642, "name": "STARLINK-35926", "group": "last-30-days", "lat": 52.98083468417569, "lon": -127.82283866838702, "alt_km": 417.27776887826894, "timestamp": "2025-12-20T20:38:43.171399+00:00", "meta": {"OBJECT_NAME": "STARLINK-35926", "OBJECT_ID": "2025-271AB", "EPOCH": "2025-12-19T17:55:19.162848", "MEAN_MOTION": 15.47687763, "ECCENTRICITY": 0.0001998, "INCLINATION": 53.1589, "RA_OF_ASC_NODE": 153.6296, "ARG_OF_PERICENTER": 136.7356, "MEAN_ANOMALY": 223.381, "EPHEMERIS_TYPE": 0, "CLASSIFICATION_TYPE": "U", "NORAD_CAT_ID": 66642, "ELEMENT_SET_NO": 999, "REV_AT_EPOCH": 525, "BSTAR": -0.0052165, "MEAN_MOTION_DOT": -0.0026545, "MEAN_MOTION_DDOT": 0}, "tle": {"line1": "1 66642U 25271AB  25353.74674957 -.00265450  00000+0 -52165-2 0  9992", "line2": "2 66642  53.1589 153.6296 0001998 136.7356 223.3810 15.47687763  5252"}}, "geometry": {"type": "Point", "coordinates": [-127.82283866838702, 52.98083468417569]}}]}